CTC2_L_00274016-03
1 48454U 23272JI  26070.40846065  .00000000  00000+0  00000-0 0  9998
2 48454  40.0000 180.0000 0000000   0.0000   0.0000 13.89609395    14
CTC2_L_00274016-04
1 48455U 25494VZ  26070.40846065  .00000000  00000+0  00000-0 0  9997
2 48455  40.0000 180.0000 0000000   0.0000  90.0000 13.89609395    14
CTC2_L_00274017-01
1 48456U 25236CP  26070.40846065  .00000000  00000+0  00000-0 0  9992
2 48456  40.0000 192.0000 0000000   0.0000 192.0000 13.89609395    11
CTC2_L_00274017-02
1 48457U 26579LD  26070.40846065  .00000000  00000+0  00000-0 0  9994
2 48457  40.0000 192.0000 0000000   0.0000 282.0000 13.89609395    12
CTC2_L_00274017-03
1 48458U 24835KV  26070.40846065  .00000000  00000+0  00000-0 0  9998
2 48458  40.0000 192.0000 0000000   0.0000  12.0000 13.89609395    14
CTC2_L_00274017-04
1 48459U 23398CR  26070.40846065  .00000000  00000+0  00000-0 0  9992
2 48459  40.0000 192.0000 0000000   0.0000 102.0000 13.89609395    15
CTC2_L_00274018-01
1 48460U 24552EN  26070.40846065  .00000000  00000+0  00000-0 0  9997
2 48460  40.0000 204.0000 0000000   0.0000 204.0000 13.89609395    14
CTC2_L_00274018-02
1 48461U 23415MN  26070.40846065  .00000000  00000+0  00000-0 0  9995
2 48461  40.0000 204.0000 0000000   0.0000 294.0000 13.89609395    14
CTC2_L_00274018-03
1 48462U 25756IZ  26070.40846065  .00000000  00000+0  00000-0 0  9996
2 48462  40.0000 204.0000 0000000   0.0000  24.0000 13.89609395    16
CTC2_L_00274018-04
1 48463U 26742CB  26070.40846065  .00000000  00000+0  00000-0 0  9993
2 48463  40.0000 204.0000 0000000   0.0000 114.0000 13.89609395    17
CTC2_L_00274019-01
1 48464U 22321BC  26070.40846065  .00000000  00000+0  00000-0 0  9993
2 48464  40.0000 216.0000 0000000   0.0000 216.0000 13.89609395    14
CTC2_L_00274019-02
1 48465U 25827IO  26070.40846065  .00000000  00000+0  00000-0 0  9998
2 48465  40.0000 216.0000 0000000   0.0000 306.0000 13.89609395    15
CTC2_L_00274019-03
1 48466U 24962TL  26070.40846065  .00000000  00000+0  00000-0 0  9998
2 48466  40.0000 216.0000 0000000   0.0000  36.0000 13.89609395    16
CTC2_L_00274019-04
1 48467U 22125RF  26070.40846065  .00000000  00000+0  00000-0 0  9998
2 48467  40.0000 216.0000 0000000   0.0000 126.0000 13.89609395    17
CTC2_L_00274020-01
1 48468U 25501WK  26070.40846065  .00000000  00000+0  00000-0 0  9990
2 48468  40.0000 228.0000 0000000   0.0000 228.0000 13.89609395    14
CTC2_L_00274020-02
1 48469U 24930GW  26070.40846065  .00000000  00000+0  00000-0 0  9996
2 48469  40.0000 228.0000 0000000   0.0000 318.0000 13.89609395    15
CTC2_L_00274020-03
1 48470U 24142TO  26070.40846065  .00000000  00000+0  00000-0 0  9993
2 48470  40.0000 228.0000 0000000   0.0000  48.0000 13.89609395    17
CTC2_L_00274020-04
1 48471U 22030AV  26070.40846065  .00000000  00000+0  00000-0 0  9998
2 48471  40.0000 228.0000 0000000   0.0000 138.0000 13.89609395    18
CTC2_L_00274021-01
1 48472U 26733L   26070.40846065  .00000000  00000+0  00000-0 0  9993
2 48472  40.0000 240.0000 0000000   0.0000 240.0000 13.89609395    17
CTC2_L_00274021-02
1 48473U 24313XM  26070.40846065  .00000000  00000+0  00000-0 0  9996
2 48473  40.0000 240.0000 0000000   0.0000 330.0000 13.89609395    18
CTC2_L_00274021-03
1 48474U 25955SF  26070.40846065  .00000000  00000+0  00000-0 0  9990
2 48474  40.0000 240.0000 0000000   0.0000  60.0000 13.89609395    19
CTC2_L_00274021-04
1 48475U 23077LE  26070.40846065  .00000000  00000+0  00000-0 0  9994
2 48475  40.0000 240.0000 0000000   0.0000 150.0000 13.89609395    10
CTC2_L_00274022-01
1 48476U 25807RR  26070.40846065  .00000000  00000+0  00000-0 0  9998
2 48476  40.0000 252.0000 0000000   0.0000 252.0000 13.89609395    17
CTC2_L_00274022-02
1 48477U 24932DH  26070.40846065  .00000000  00000+0  00000-0 0  9997
2 48477  40.0000 252.0000 0000000   0.0000 342.0000 13.89609395    18
CTC2_L_00274022-03
1 48478U 25829Z   26070.40846065  .00000000  00000+0  00000-0 0  9994
2 48478  40.0000 252.0000 0000000   0.0000  72.0000 13.89609395    19
CTC2_L_00274022-04
1 48479U 26663PB  26070.40846065  .00000000  00000+0  00000-0 0  9992
2 48479  40.0000 252.0000 0000000   0.0000 162.0000 13.89609395    10
CTC2_L_00274023-01
1 48480U 24466AK  26070.40846065  .00000000  00000+0  00000-0 0  9993
2 48480  40.0000 264.0000 0000000   0.0000 264.0000 13.89609395    18
CTC2_L_00274023-02
1 48481U 25835BY  26070.40846065  .00000000  00000+0  00000-0 0  9995
2 48481  40.0000 264.0000 0000000   0.0000 354.0000 13.89609395    19
CTC2_L_00274023-03
1 48482U 23794EY  26070.40846065  .00000000  00000+0  00000-0 0  9998
2 48482  40.0000 264.0000 0000000   0.0000  84.0000 13.89609395    10
CTC2_L_00274023-04
1 48483U 23179EJ  26070.40846065  .00000000  00000+0  00000-0 0  9996
2 48483  40.0000 264.0000 0000000   0.0000 174.0000 13.89609395    11
CTC2_L_00274024-01
1 48484U 25316SV  26070.40846065  .00000000  00000+0  00000-0 0  9992
2 48484  40.0000 276.0000 0000000   0.0000 276.0000 13.89609395    18
CTC2_L_00274024-02
1 48485U 22506ZT  26070.40846065  .00000000  00000+0  00000-0 0  9991
2 48485  40.0000 276.0000 0000000   0.0000   6.0000 13.89609395    10
CTC2_L_00274024-03
1 48486U 26206ZE  26070.40846065  .00000000  00000+0  00000-0 0  9993
2 48486  40.0000 276.0000 0000000   0.0000  96.0000 13.89609395    10
CTC2_L_00274024-04
1 48487U 23557Y   26070.40846065  .00000000  00000+0  00000-0 0  9990
2 48487  40.0000 276.0000 0000000   0.0000 186.0000 13.89609395    11
CTC2_L_00274025-01
1 48488U 26402AO  26070.40846065  .00000000  00000+0  00000-0 0  9993
2 48488  40.0000 288.0000 0000000   0.0000 288.0000 13.89609395    18
CTC2_L_00274025-02
1 48489U 24458EK  26070.40846065  .00000000  00000+0  00000-0 0  9993
2 48489  40.0000 288.0000 0000000   0.0000  18.0000 13.89609395    10
CTC2_L_00274025-03
1 48490U 26024HF  26070.40846065  .00000000  00000+0  00000-0 0  9996
2 48490  40.0000 288.0000 0000000   0.0000 108.0000 13.89609395    12
CTC2_L_00274025-04
1 48491U 22582MC  26070.40846065  .00000000  00000+0  00000-0 0  9992
2 48491  40.0000 288.0000 0000000   0.0000 198.0000 13.89609395    12
CTC2_L_00274026-01
1 48492U 24741YQ  26070.40846065  .00000000  00000+0  00000-0 0  9992
2 48492  40.0000 300.0000 0000000   0.0000 300.0000 13.89609395    13
CTC2_L_00274026-02
1 48493U 22574AD  26070.40846065  .00000000  00000+0  00000-0 0  9995
2 48493  40.0000 300.0000 0000000   0.0000  30.0000 13.89609395    14
CTC2_L_00274026-03
1 48494U 22754QS  26070.40846065  .00000000  00000+0  00000-0 0  9996
2 48494  40.0000 300.0000 0000000   0.0000 120.0000 13.89609395    15
CTC2_L_00274026-04
1 48495U 24824IY  26070.40846065  .00000000  00000+0  00000-0 0  9997
2 48495  40.0000 300.0000 0000000   0.0000 210.0000 13.89609395    16
CTC2_L_00274027-01
1 48496U 24743WM  26070.40846065  .00000000  00000+0  00000-0 0  9998
2 48496  40.0000 312.0000 0000000   0.0000 312.0000 13.89609395    13
CTC2_L_00274027-02
1 48497U 25835NT  26070.40846065  .00000000  00000+0  00000-0 0  9992
2 48497  40.0000 312.0000 0000000   0.0000  42.0000 13.89609395    14
CTC2_L_00274027-03
1 48498U 25887TP  26070.40846065  .00000000  00000+0  00000-0 0  9990
2 48498  40.0000 312.0000 0000000   0.0000 132.0000 13.89609395    15
CTC2_L_00274027-04
1 48499U 26210WI  26070.40846065  .00000000  00000+0  00000-0 0  9992
2 48499  40.0000 312.0000 0000000   0.0000 222.0000 13.89609395    16
CTC2_L_00274028-01
1 48500U 26212NS  26070.40846065  .00000000  00000+0  00000-0 0  9997
2 48500  40.0000 324.0000 0000000   0.0000 324.0000 13.89609395    15
CTC2_L_00274028-02
1 48501U 22364TP  26070.40846065  .00000000  00000+0  00000-0 0  9992
2 48501  40.0000 324.0000 0000000   0.0000  54.0000 13.89609395    16
CTC2_L_00274028-03
1 48502U 23892HX  26070.40846065  .00000000  00000+0  00000-0 0  9990
2 48502  40.0000 324.0000 0000000   0.0000 144.0000 13.89609395    17
CTC2_L_00274028-04
1 48503U 22072XZ  26070.40846065  .00000000  00000+0  00000-0 0  9990
2 48503  40.0000 324.0000 0000000   0.0000 234.0000 13.89609395    18
CTC2_L_00274029-01
1 48504U 24448RT  26070.40846065  .00000000  00000+0  00000-0 0  9990
2 48504  40.0000 336.0000 0000000   0.0000 336.0000 13.89609395    15
CTC2_L_00274029-02
1 48505U 24622LA  26070.40846065  .00000000  00000+0  00000-0 0  9995
2 48505  40.0000 336.0000 0000000   0.0000  66.0000 13.89609395    16
CTC2_L_00274029-03
1 48506U 22731GZ  26070.40846065  .00000000  00000+0  00000-0 0  9995
2 48506  40.0000 336.0000 0000000   0.0000 156.0000 13.89609395    17
CTC2_L_00274029-04
1 48507U 24080DL  26070.40846065  .00000000  00000+0  00000-0 0  9995
2 48507  40.0000 336.0000 0000000   0.0000 246.0000 13.89609395    18
CTC2_L_00274030-01
1 48508U 23068GC  26070.40846065  .00000000  00000+0  00000-0 0  9991
2 48508  40.0000 348.0000 0000000   0.0000 348.0000 13.89609395    15
CTC2_L_00274030-02
1 48509U 26125BW  26070.40846065  .00000000  00000+0  00000-0 0  9999
2 48509  40.0000 348.0000 0000000   0.0000  78.0000 13.89609395    16
CTC2_L_00274030-03
1 48510U 25240ZB  26070.40846065  .00000000  00000+0  00000-0 0  9998
2 48510  40.0000 348.0000 0000000   0.0000 168.0000 13.89609395    18
CTC2_L_00274030-04
1 48511U 25452TA  26070.40846065  .00000000  00000+0  00000-0 0  9994
2 48511  40.0000 348.0000 0000000   0.0000 258.0000 13.89609395    19
